[{"OBJECT_NAME":"COSMOS 2456 (730)","OBJECT_ID":"2009-070A","EPOCH":"2026-03-06T17:10:20.903808","MEAN_MOTION":2.13103461,"ECCENTRICITY":0.00063389,"INCLINATION":64.9504,"RA_OF_ASC_NODE":74.4664,"ARG_OF_PERICENTER":306.1102,"MEAN_ANOMALY":176.9939,"EPHEMERIS_TYPE":0,"CLASSIFICATION_TYPE":"U","NORAD_CAT_ID":36111,"ELEMENT_SET_NO":999,"REV_AT_EPOCH":12624,"BSTAR":0,"MEAN_MOTION_DOT":-3.0e-8,"MEAN_MOTION_DDOT":0},{"OBJECT_NAME":"COSMOS 2457 (733)","OBJECT_ID":"2009-070B","EPOCH":"2026-03-07T07:58:52.235328","MEAN_MOTION":2.1310093,"ECCENTRICITY":0.0002134,"INCLINATION":64.9366,"RA_OF_ASC_NODE":74.2912,"ARG_OF_PERICENTER":196.6857,"MEAN_ANOMALY":168.1357,"EPHEMERIS_TYPE":0,"CLASSIFICATION_TYPE":"U","NORAD_CAT_ID":36112,"ELEMENT_SET_NO":999,"REV_AT_EPOCH":12626,"BSTAR":0,"MEAN_MOTION_DOT":-3.0e-8,"MEAN_MOTION_DDOT":0},{"OBJECT_NAME":"COSMOS 2460 (732)","OBJECT_ID":"2010-007C","EPOCH":"2026-03-04T01:40:53.845824","MEAN_MOTION":2.1310601,"ECCENTRICITY":0.00017925,"INCLINATION":65.4801,"RA_OF_ASC_NODE":318.0258,"ARG_OF_PERICENTER":14.3302,"MEAN_ANOMALY":8.4003,"EPHEMERIS_TYPE":0,"CLASSIFICATION_TYPE":"U","NORAD_CAT_ID":36402,"ELEMENT_SET_NO":999,"REV_AT_EPOCH":12449,"BSTAR":0,"MEAN_MOTION_DOT":-5.1e-7,"MEAN_MOTION_DDOT":0},{"OBJECT_NAME":"GPS BIIF-1  (PRN 25)","OBJECT_ID":"2010-022A","EPOCH":"2026-03-06T18:03:55.859040","MEAN_MOTION":2.00557423,"ECCENTRICITY":0.01273277,"INCLINATION":54.2884,"RA_OF_ASC_NODE":212.6864,"ARG_OF_PERICENTER":65.8922,"MEAN_ANOMALY":297.4739,"EPHEMERIS_TYPE":0,"CLASSIFICATION_TYPE":"U","NORAD_CAT_ID":36585,"ELEMENT_SET_NO":999,"REV_AT_EPOCH":11554,"BSTAR":0,"MEAN_MOTION_DOT":2.2e-7,"MEAN_MOTION_DDOT":0},{"OBJECT_NAME":"BEIDOU-2 IGSO-1 (C06)","OBJECT_ID":"2010-036A","EPOCH":"2026-03-05T17:10:32.013120","MEAN_MOTION":1.00252203,"ECCENTRICITY":0.00540174,"INCLINATION":54.2927,"RA_OF_ASC_NODE":163.8986,"ARG_OF_PERICENTER":218.9744,"MEAN_ANOMALY":143.184,"EPHEMERIS_TYPE":0,"CLASSIFICATION_TYPE":"U","NORAD_CAT_ID":36828,"ELEMENT_SET_NO":999,"REV_AT_EPOCH":5706,"BSTAR":0,"MEAN_MOTION_DOT":-1.26e-6,"MEAN_MOTION_DDOT":0},{"OBJECT_NAME":"BEIDOU-2 G4 (C04)","OBJECT_ID":"2010-057A","EPOCH":"2026-03-07T14:46:58.269216","MEAN_MOTION":1.00272448,"ECCENTRICITY":0.00086593,"INCLINATION":3.3946,"RA_OF_ASC_NODE":69.5351,"ARG_OF_PERICENTER":212.2543,"MEAN_ANOMALY":265.2875,"EPHEMERIS_TYPE":0,"CLASSIFICATION_TYPE":"U","NORAD_CAT_ID":37210,"ELEMENT_SET_NO":999,"REV_AT_EPOCH":5627,"BSTAR":0,"MEAN_MOTION_DOT":-1.13e-6,"MEAN_MOTION_DDOT":0},{"OBJECT_NAME":"BEIDOU-2 IGSO-2 (C07)","OBJECT_ID":"2010-068A","EPOCH":"2026-03-04T13:12:14.573952","MEAN_MOTION":1.00258965,"ECCENTRICITY":0.00473304,"INCLINATION":47.7317,"RA_OF_ASC_NODE":273.1244,"ARG_OF_PERICENTER":213.1251,"MEAN_ANOMALY":341.1802,"EPHEMERIS_TYPE":0,"CLASSIFICATION_TYPE":"U","NORAD_CAT_ID":37256,"ELEMENT_SET_NO":999,"REV_AT_EPOCH":5574,"BSTAR":0,"MEAN_MOTION_DOT":-1.78e-6,"MEAN_MOTION_DDOT":0},{"OBJECT_NAME":"BEIDOU-2 IGSO-3 (C08)","OBJECT_ID":"2011-013A","EPOCH":"2026-02-27T21:48:44.352288","MEAN_MOTION":1.00294022,"ECCENTRICITY":0.00350296,"INCLINATION":62.2642,"RA_OF_ASC_NODE":41.1818,"ARG_OF_PERICENTER":190.8154,"MEAN_ANOMALY":358.7681,"EPHEMERIS_TYPE":0,"CLASSIFICATION_TYPE":"U","NORAD_CAT_ID":37384,"ELEMENT_SET_NO":999,"REV_AT_EPOCH":5456,"BSTAR":0,"MEAN_MOTION_DOT":-1.54e-6,"MEAN_MOTION_DDOT":0},{"OBJECT_NAME":"GSAT-8 (GAGAN/PRN 127)","OBJECT_ID":"2011-022A","EPOCH":"2026-03-07T05:28:38.887104","MEAN_MOTION":1.00273571,"ECCENTRICITY":0.0007117,"INCLINATION":1.8673,"RA_OF_ASC_NODE":83.1201,"ARG_OF_PERICENTER":216.7605,"MEAN_ANOMALY":2.2743,"EPHEMERIS_TYPE":0,"CLASSIFICATION_TYPE":"U","NORAD_CAT_ID":37605,"ELEMENT_SET_NO":999,"REV_AT_EPOCH":5219,"BSTAR":0,"MEAN_MOTION_DOT":8.3e-7,"MEAN_MOTION_DDOT":0},{"OBJECT_NAME":"BEIDOU-2 IGSO-4 (C09)","OBJECT_ID":"2011-038A","EPOCH":"2026-03-05T17:23:06.211680","MEAN_MOTION":1.00265577,"ECCENTRICITY":0.01545816,"INCLINATION":54.5899,"RA_OF_ASC_NODE":166.6081,"ARG_OF_PERICENTER":230.9953,"MEAN_ANOMALY":121.0281,"EPHEMERIS_TYPE":0,"CLASSIFICATION_TYPE":"U","NORAD_CAT_ID":37763,"ELEMENT_SET_NO":999,"REV_AT_EPOCH":5360,"BSTAR":0,"MEAN_MOTION_DOT":-1.0e-6,"MEAN_MOTION_DDOT":0},{"OBJECT_NAME":"GSAT0101 (GALILEO-PFM)","OBJECT_ID":"2011-060A","EPOCH":"2026-02-22T11:08:37.810464","MEAN_MOTION":1.70475478,"ECCENTRICITY":0.00039756,"INCLINATION":57.0318,"RA_OF_ASC_NODE":344.8758,"ARG_OF_PERICENTER":357.0591,"MEAN_ANOMALY":2.9533,"EPHEMERIS_TYPE":0,"CLASSIFICATION_TYPE":"U","NORAD_CAT_ID":37846,"ELEMENT_SET_NO":999,"REV_AT_EPOCH":8916,"BSTAR":0,"MEAN_MOTION_DOT":-8.2e-7,"MEAN_MOTION_DDOT":0},{"OBJECT_NAME":"GSAT0102 (GALILEO-FM2)","OBJECT_ID":"2011-060B","EPOCH":"2026-03-01T01:30:59.316192","MEAN_MOTION":1.70475778,"ECCENTRICITY":0.00054225,"INCLINATION":57.0301,"RA_OF_ASC_NODE":344.6971,"ARG_OF_PERICENTER":341.2092,"MEAN_ANOMALY":154.1953,"EPHEMERIS_TYPE":0,"CLASSIFICATION_TYPE":"U","NORAD_CAT_ID":37847,"ELEMENT_SET_NO":999,"REV_AT_EPOCH":8928,"BSTAR":0,"MEAN_MOTION_DOT":-1.06e-6,"MEAN_MOTION_DDOT":0},{"OBJECT_NAME":"COSMOS 2476 (744)","OBJECT_ID":"2011-064A","EPOCH":"2026-03-06T04:06:30.518784","MEAN_MOTION":2.13103631,"ECCENTRICITY":0.00251869,"INCLINATION":65.2104,"RA_OF_ASC_NODE":76.3481,"ARG_OF_PERICENTER":241.3746,"MEAN_ANOMALY":92.4806,"EPHEMERIS_TYPE":0,"CLASSIFICATION_TYPE":"U","NORAD_CAT_ID":37867,"ELEMENT_SET_NO":999,"REV_AT_EPOCH":11156,"BSTAR":0,"MEAN_MOTION_DOT":1.0e-8,"MEAN_MOTION_DDOT":0},{"OBJECT_NAME":"COSMOS 2477 (745)","OBJECT_ID":"2011-064B","EPOCH":"2026-03-07T09:48:00.975168","MEAN_MOTION":2.1310285,"ECCENTRICITY":0.00222388,"INCLINATION":65.2178,"RA_OF_ASC_NODE":76.3849,"ARG_OF_PERICENTER":242.9634,"MEAN_ANOMALY":140.6535,"EPHEMERIS_TYPE":0,"CLASSIFICATION_TYPE":"U","NORAD_CAT_ID":37868,"ELEMENT_SET_NO":999,"REV_AT_EPOCH":11159,"BSTAR":0,"MEAN_MOTION_DOT":0,"MEAN_MOTION_DDOT":0},{"OBJECT_NAME":"COSMOS 2475 (743)","OBJECT_ID":"2011-064C","EPOCH":"2026-03-06T15:59:32.240832","MEAN_MOTION":2.13101515,"ECCENTRICITY":0.00280314,"INCLINATION":65.2241,"RA_OF_ASC_NODE":76.4304,"ARG_OF_PERICENTER":254.4778,"MEAN_ANOMALY":235.4579,"EPHEMERIS_TYPE":0,"CLASSIFICATION_TYPE":"U","NORAD_CAT_ID":37869,"ELEMENT_SET_NO":999,"REV_AT_EPOCH":11158,"BSTAR":0,"MEAN_MOTION_DOT":0,"MEAN_MOTION_DDOT":0},{"OBJECT_NAME":"BEIDOU-2 IGSO-5 (C10)","OBJECT_ID":"2011-073A","EPOCH":"2026-03-07T11:47:00.669408","MEAN_MOTION":1.00272115,"ECCENTRICITY":0.01086486,"INCLINATION":47.8624,"RA_OF_ASC_NODE":272.8005,"ARG_OF_PERICENTER":221.1571,"MEAN_ANOMALY":303.1286,"EPHEMERIS_TYPE":0,"CLASSIFICATION_TYPE":"U","NORAD_CAT_ID":37948,"ELEMENT_SET_NO":999,"REV_AT_EPOCH":5211,"BSTAR":0,"MEAN_MOTION_DOT":-1.4e-6,"MEAN_MOTION_DDOT":0},{"OBJECT_NAME":"LUCH 5A (SDCM/PRN 140)","OBJECT_ID":"2011-074B","EPOCH":"2026-03-06T19:53:07.888992","MEAN_MOTION":1.00276047,"ECCENTRICITY":0.00038652,"INCLINATION":8.4932,"RA_OF_ASC_NODE":75.3103,"ARG_OF_PERICENTER":248.4778,"MEAN_ANOMALY":306.164,"EPHEMERIS_TYPE":0,"CLASSIFICATION_TYPE":"U","NORAD_CAT_ID":37951,"ELEMENT_SET_NO":999,"REV_AT_EPOCH":5202,"BSTAR":0,"MEAN_MOTION_DOT":-4.9e-7,"MEAN_MOTION_DDOT":0}]
